CUTE-1 (CO-55)          
1 27844U 03031E   25149.29686635  .00000329  00000+0  16237-3 0  9993
2 27844  98.6757 157.7162 0008861 214.0717 145.9894 14.23987354137033
CUBESAT XI-IV (CO-57)   
1 27848U 03031J   25148.74792050  .00000268  00000+0  13746-3 0  9999
2 27848  98.6787 157.1890 0008467 234.9559 125.0826 14.23322762136689
CUBESAT XI-V            
1 28895U 05043F   25149.36263797  .00001497  00000+0  25229-3 0  9991
2 28895  98.2484 293.5737 0014055 347.7331  12.3531 14.70976235 45297
CUTE-1.7+APD II (CO-65) 
1 32785U 08021C   25149.56381761  .00005195  00000+0  37709-3 0  9992
2 32785  97.7849 120.6480 0007790 244.5491 115.4929 15.04319580927425
CANX-2                  
1 32790U 08021H   25149.37492709  .00003810  00000+0  29797-3 0  9992
2 32790  97.8231 119.0376 0010450 241.7086 118.3084 15.01643086927139
SEEDS II (CO-66)        
1 32791U 08021J   25149.89733243  .00014831  00000+0  72263-3 0  9992
2 32791  97.7273 129.7031 0003519 171.5269 188.6024 15.18444401928955
SWISSCUBE               
1 35932U 09051B   25148.64800960  .00001117  00000+0  23619-3 0  9993
2 35932  98.4317  44.6588 0006530 340.3228  19.7720 14.61306122833014
BEESAT-1                
1 35933U 09051C   25148.68611399  .00000946  00000+0  20413-3 0  9992
2 35933  98.4248  45.0728 0005292 357.0430   3.0737 14.60725057833030
ITUPSAT1                
1 35935U 09051E   25148.96745854  .00000836  00000+0  18620-3 0  9994
2 35935  98.4342  44.9094 0007665   0.3093 359.8109 14.59524720832676
TISAT 1                 
1 36799U 10035E   25148.71528544  .00013193  00000+0  68338-3 0  9996
2 36799  98.0598  62.0337 0004731 120.4128 239.7572 15.16333438809176
AEROCUBE 4.5A           
1 38767U 12048K   25149.83029421  .00027366  00000+0  73359-3 0  9999
2 38767  64.6481 261.2124 0100215 278.1627  80.8147 15.32893687313177
STRAND-1                
1 39090U 13009E   25148.97604491  .00000290  00000+0  11267-3 0  9994
2 39090  98.3825 333.9772 0007629 304.2055  55.8409 14.36809342641883
BRITE-AUSTRIA           
1 39091U 13009F   25148.97749220  .00000173  00000+0  73676-4 0  9998
2 39091  98.3882 333.2337 0009284 312.2912  47.7487 14.36304145641895
NEE-01 PEGASO           
1 39151U 13018B   25149.57662090  .00003464  00000+0  35796-3 0  9997
2 39151  98.0723 278.1805 0012908 352.3109   7.7908 14.90765483653501
POPACS 1                
1 39268U 13055D   25149.60501457  .00107623  17447-5  97248-3 0  9991
2 39268  80.9713 100.4628 0245249  22.3983 338.7743 15.38256233614411
POPACS 2                
1 39269U 13055E   25149.46181517  .00015985  00000+0  31532-3 0  9991
2 39269  80.9958 218.0810 0477076 332.0769  25.5550 14.75580474607551
POPACS 3                
1 39270U 13055F   25149.64422969  .00018479  00000+0  46557-3 0  9996
2 39270  81.0044 282.3311 0585930 150.9839 212.5312 14.47633567603602
ZACUBE-1 (TSHEPISOSAT)  
1 39417U 13066B   25149.62128437  .00006096  00000+0  52973-3 0  9993
2 39417  97.7798 106.6939 0046221  88.8694 271.7822 14.96529839623270
WNISAT-1                
1 39423U 13066H   25149.40036145  .00000603  00000+0  12022-3 0  9999
2 39423  97.6771 322.1608 0165467   1.1195 359.0343 14.57087909610822
TRITON-1                
1 39427U 13066M   25149.64673218  .00004233  00000+0  53721-3 0  9991
2 39427  97.8378  63.6972 0095873  42.7020 318.1591 14.78987372617535
GOMX-1                  
1 39430U 13066Q   25149.37262012  .00001611  00000+0  25732-3 0  9999
2 39430  97.6847   8.7250 0131357 227.9308 131.0665 14.67591346613766
CUBEBUG-2 (LO-74)       
1 39440U 13066AA  25149.26028916  .00003565  00000+0  36434-3 0  9992
2 39440  97.8497  93.9003 0060979 216.2713 143.4364 14.89854759619756
NEE-02 KRYSAOR          
1 39441U 13066AB  25149.26007811  .00001825  00000+0  21561-3 0  9996
2 39441  97.8556  87.7862 0067488 246.8754 112.5339 14.84318362620361
FUNCUBE-1 (AO-73)       
1 39444U 13066AE  25149.35684869  .00007892  00000+0  59176-3 0  9996
2 39444  97.7842 111.2283 0044280  66.1356 294.4500 15.02154175621909
UWE-3                   
1 39446U 13066AG  25149.81226956  .00005001  00000+0  47550-3 0  9991
2 39446  97.8241 100.7972 0054042 153.0269 207.3777 14.92808973620895
BRITE-CA1 (TORONTO)     
1 40020U 14033L   25149.82956612  .00001047  00000+0  16787-3 0  9990
2 40020  97.9244 282.3231 0081362  64.5616 296.3983 14.71602429585927
DUCHIFAT-1              
1 40021U 14033M   25149.00208890  .00025128  00000+0  91832-3 0  9999
2 40021  98.0947 162.3383 0008496  12.3992 347.7453 15.28055623596555
NANOSATC-BR1            
1 40024U 14033Q   25148.93966101  .00015285  00000+0  75291-3 0  9993
2 40024  98.0899 146.0594 0006716  80.6085 279.5906 15.18053753595444
QB50P1                  
1 40025U 14033R   25149.41255429  .00008239  00000+0  50608-3 0  9998
2 40025  98.0828 131.3864 0012465  92.8105 267.4550 15.10305283594956
QB50P2                  
1 40032U 14033Y   25149.16592385  .00006773  00000+0  44200-3 0  9995
2 40032  98.0432 120.1058 0010082  48.4254 311.7836 15.08178334594650
PERSEUS-M2              
1 40037U 14033AD  25149.78505107  .00002147  00000+0  20828-3 0  9995
2 40037  97.9555  89.2108 0013539 125.5874 234.6609 14.93692012594013
PERSEUS-M1              
1 40039U 14033AF  25149.77114866  .00002306  00000+0  22340-3 0  9992
2 40039  97.9294  84.1875 0013303 124.4125 235.8353 14.93674168593870
POLYITAN-1              
1 40042U 14033AJ  25149.23114218  .00015011  00000+0  73370-3 0  9994
2 40042  98.1028 138.7305 0011377  48.0694 312.1506 15.18290939595067
TIGRISAT                
1 40043U 14033AK  25149.40076285  .00002001  00000+0  24815-3 0  9990
2 40043  97.7343 305.0421 0050142 252.0682 107.5062 14.82896966589000
AEROCUBE 6A             
1 40045U 14033AM  25149.39971886  .00006311  00000+0  61499-3 0  9998
2 40045  97.6918 317.9443 0042610 215.3792 144.4598 14.92144301589273
AEROCUBE 6B             
1 40046U 14033AN  25149.40313589  .00006735  00000+0  63732-3 0  9993
2 40046  97.6897 317.0589 0041399 208.5431 151.3522 14.93317593589369
CANX-4                  
1 40055U 14034C   25149.32850902  .00001065  00000+0  14755-3 0  9992
2 40055  98.3637   4.5907 0013429 158.1692 202.0094 14.80191620587759
CANX-5                  
1 40056U 14034D   25149.33101195  .00001073  00000+0  14858-3 0  9990
2 40056  98.3639   4.6148 0013433 158.3464 201.8317 14.80205193578536
UKUBE-1                 
1 40074U 14037F   25149.13340284  .00007523  00000+0  53123-3 0  9999
2 40074  98.3932 110.4426 0002992  55.8989 304.2519 15.05255733590627
BRITE-PL2 (HEWELIUSZ)   
1 40119U 14049B   25149.55864321  .00002148  00000+0  21451-3 0  9998
2 40119  97.8895 254.7710 0013315 303.9761  56.0192 14.92515662584271
AEROCUBE 5C             
1 40965U 15058B   25149.59011989  .00003056  00000+0  26902-3 0  9991
2 40965  64.7690  13.3167 0166279 203.9540 155.3774 14.88440171308509
AEROCUBE 7              
1 40966U 15058C   25149.61318739  .00004602  00000+0  37274-3 0  9990
2 40966  64.7649   2.6328 0158183 203.8762 155.4960 14.91668957308667
FOX-1A (AO-85)          
1 40967U 15058D   25149.10663869  .00002390  00000+0  21909-3 0  9992
2 40967  64.7769  29.9162 0162691 199.1993 160.2944 14.87939181 56369
SINOD-D 1               
1 40968U 15058E   25148.95009743  .00003603  00000+0  29972-3 0  9996
2 40968  64.7768  18.4223 0152592 198.2658 161.2940 14.91706389 59263
SNAP-3 ALICE            
1 40970U 15058G   25149.68295571  .00032406  00000+0  13438-2 0  9998
2 40970  64.7669 300.4437 0088386 198.6998 161.0877 15.20175869 58012
LMRST-SAT               
1 40971U 15058H   25149.11070961  .00002487  00000+0  22726-3 0  9998
2 40971  64.7770  25.6209 0164988 200.6460 158.7935 14.87695118 56360
SNAP-3 EDDIE            
1 40972U 15058J   25149.40561440  .00030688  00000+0  12425-2 0  9996
2 40972  64.7591 293.9427 0093565 200.7614 158.9703 15.20561981 60085
PROPCUBE 3              
1 40973U 15058K   25149.80072778  .00003931  00000+0  32846-3 0  9993
2 40973  64.7700   7.1628 0159611 202.2738 157.1392 14.90622507 57589
BISONSAT                
1 40974U 15058L   25149.77894273  .00016158  00000+0  94956-3 0  9997
2 40974  64.7641 323.0321 0123018 200.7904 158.8189 15.05616218 57697
SNAP-3 JIMI             
1 40975U 15058M   25149.84088906  .00007080  00000+0  51361-3 0  9991
2 40975  64.7674 347.4665 0144553 201.4883 158.0127 14.96596502 56747
PROPCUBE 1 (FLORA)      
1 40976U 15058N   25149.86714275  .00002393  00000+0  22732-3 0  9991
2 40976  64.7761  40.7756 0164405 202.0993 157.2976 14.86401153 59232
SINOD-D 3               
1 40977U 15058P   25149.06145111  .00003084  00000+0  26872-3 0  9998
2 40977  64.7741  31.8170 0154560 201.7056 157.7461 14.90092998 57442
HORYU-4                 
1 41340U 16012D   25148.46088537  .00021149  00000+0  57401-3 0  9999
2 41340  30.9960 213.4095 0006306 286.1964  73.7988 15.36347029510925
RAVAN                   
1 41849U 16067B   25149.00547702  .00014360  00000+0  49793-3 0  9990
2 41849  98.0446 357.0594 0007810 276.9314  83.1036 15.29913040468575
CELTEE 1                
1 41850U 16067C   25149.26781418  .00005428  00000+0  29896-3 0  9991
2 41850  98.1067 345.1121 0002513 101.5608 258.5904 15.14487703467673
OPTICUBE 04             
1 41851U 16067D   25148.47150263  .00002982  00000+0  20233-3 0  9990
2 41851  98.0924 335.6468 0015977 340.8047  19.2575 15.07182825467176
AEROCUBE 8D             
1 41852U 16067E   25149.31613871  .00006963  00000+0  35146-3 0  9996
2 41852  98.1099 346.2738 0004541  35.0702 325.0828 15.17456443467726
AEROCUBE 8C             
1 41853U 16067F   25149.32279991  .00006994  00000+0  35177-3 0  9997
2 41853  98.0944 344.0948 0004887 311.1916  48.8894 15.17579449467716
PROMETHEUS 2-1          
1 41854U 16067G   25149.03482610  .00040960  00000+0  80047-3 0  9997
2 41854  98.0772   1.0370 0004713 287.0479  73.0252 15.47340045468628
